ONEWEB-0531             
1 54146U 22138AK  24365.29864648  .00000065  00000+0  12763-3 0  9995
2 54146  87.9246  20.6564 0002701 104.6683 255.4749 13.20771621108835
ONEWEB-0535             
1 54147U 22138AL  24365.55652627  .00000106  00000+0  23124-3 0  9996
2 54147  87.9155  51.0529 0002089 100.5483 259.5885 13.19724652106458
ONEWEB-0536             
1 54148U 22138AM  24365.28601627  .00000028  00000+0  36385-4 0  9998
2 54148  87.9245  20.7062 0002714 107.3643 252.7787 13.20770666108829
ONEWEB-0527             
1 54642U 22166A   24365.36031964  .00000097  00000+0  20334-3 0  9990
2 54642  87.9298 350.3541 0001757  89.8875 270.2460 13.21824748101016
ONEWEB-0528             
1 54643U 22166B   24365.21524129  .00000094  00000+0  19699-3 0  9994
2 54643  87.9300 350.3767 0001669  87.0597 273.0728 13.21826878101007
ONEWEB-0539             
1 54644U 22166C   24365.40290581  .00000071  00000+0  14005-3 0  9999
2 54644  87.9304 350.3441 0001800  80.0099 280.1238 13.21825468101029
ONEWEB-0540             
1 54645U 22166D   24365.39739536  .00000137  00000+0  29921-3 0  9992
2 54645  87.9298 350.3523 0001828  79.5702 280.5638 13.21827929101489
ONEWEB-0542             
1 54646U 22166E   24365.41235827  .00000073  00000+0  14604-3 0  9991
2 54646  87.9304 350.3409 0002066  75.3530 284.7833 13.21825465101025
